IRIDIUM 57              
1 25273U 98019B   24327.53091227  .00000837  00000+0  28384-3 0  9998
2 25273  86.3988 231.7645 0002252  81.8517 278.2935 14.35591744395132
IRIDIUM 63              
1 25286U 98021B   24327.56027218  .00000812  00000+0  27181-3 0  9994
2 25286  86.4006 168.7486 0001876  90.2474 269.8938 14.36196873394185
IRIDIUM 69              
1 25319U 98026A   24327.57612520  .00001002  00000+0  30865-3 0  9998
2 25319  86.4013 182.6346 0002845  30.2893 329.8470 14.40540161393316
IRIDIUM 71              
1 25320U 98026B   24327.54408294  .00000834  00000+0  25461-3 0  9996
2 25320  86.4007 177.3835 0003958  66.9119 293.2497 14.40779051393830
IRIDIUM 73              
1 25344U 98032C   24327.44986918  .00001591  00000+0  39616-3 0  9990
2 25344  86.4401 134.6028 0001889  69.5248 290.6160 14.51152140400571
IRIDIUM 82              
1 25467U 98051A   24327.16843494  .00032654  00000+0  13255-2 0  9991
2 25467  86.3755 210.3697 0110045 357.8827   2.1933 15.18953969392399
