<?xml version="1.0" encoding="UTF-8"?>
<ndm xmlns:xsi="http://www.w3.org/2001/XMLSchema-instance" xsi:noNamespaceSchemaLocation="https://sanaregistry.org/r/ndmxml_unqualified/ndmxml-2.0.0-master-2.0.xsd">
<omm id="CCSDS_OMM_VERS" version="2.0">
<header><CREATION_DATE/><ORIGINATOR/></header><body><segment><metadata><OBJECT_NAME>IRIDIUM 57</OBJECT_NAME><OBJECT_ID>1998-019B</OBJECT_ID><CENTER_NAME>EARTH</CENTER_NAME><REF_FRAME>TEME</REF_FRAME><TIME_SYSTEM>UTC</TIME_SYSTEM><MEAN_ELEMENT_THEORY>SGP4</MEAN_ELEMENT_THEORY></metadata><data><meanElements><EPOCH>2024-11-22T12:44:30.820128</EPOCH><MEAN_MOTION>14.35591744</MEAN_MOTION><ECCENTRICITY>.0002252</ECCENTRICITY><INCLINATION>86.3988</INCLINATION><RA_OF_ASC_NODE>231.7645</RA_OF_ASC_NODE><ARG_OF_PERICENTER>81.8517</ARG_OF_PERICENTER><MEAN_ANOMALY>278.2935</MEAN_ANOMALY></meanElements><tleParameters><EPHEMERIS_TYPE>0</EPHEMERIS_TYPE><CLASSIFICATION_TYPE>U</CLASSIFICATION_TYPE><NORAD_CAT_ID>25273</NORAD_CAT_ID><ELEMENT_SET_NO>999</ELEMENT_SET_NO><REV_AT_EPOCH>39513</REV_AT_EPOCH><BSTAR>.28384E-3</BSTAR><MEAN_MOTION_DOT>.837E-5</MEAN_MOTION_DOT><MEAN_MOTION_DDOT>0</MEAN_MOTION_DDOT></tleParameters></data></segment></body></omm>
<omm id="CCSDS_OMM_VERS" version="2.0">
<header><CREATION_DATE/><ORIGINATOR/></header><body><segment><metadata><OBJECT_NAME>IRIDIUM 63</OBJECT_NAME><OBJECT_ID>1998-021B</OBJECT_ID><CENTER_NAME>EARTH</CENTER_NAME><REF_FRAME>TEME</REF_FRAME><TIME_SYSTEM>UTC</TIME_SYSTEM><MEAN_ELEMENT_THEORY>SGP4</MEAN_ELEMENT_THEORY></metadata><data><meanElements><EPOCH>2024-11-22T13:26:47.516352</EPOCH><MEAN_MOTION>14.36196873</MEAN_MOTION><ECCENTRICITY>.0001876</ECCENTRICITY><INCLINATION>86.4006</INCLINATION><RA_OF_ASC_NODE>168.7486</RA_OF_ASC_NODE><ARG_OF_PERICENTER>90.2474</ARG_OF_PERICENTER><MEAN_ANOMALY>269.8938</MEAN_ANOMALY></meanElements><tleParameters><EPHEMERIS_TYPE>0</EPHEMERIS_TYPE><CLASSIFICATION_TYPE>U</CLASSIFICATION_TYPE><NORAD_CAT_ID>25286</NORAD_CAT_ID><ELEMENT_SET_NO>999</ELEMENT_SET_NO><REV_AT_EPOCH>39418</REV_AT_EPOCH><BSTAR>.27181E-3</BSTAR><MEAN_MOTION_DOT>.812E-5</MEAN_MOTION_DOT><MEAN_MOTION_DDOT>0</MEAN_MOTION_DDOT></tleParameters></data></segment></body></omm>
<omm id="CCSDS_OMM_VERS" version="2.0">
<header><CREATION_DATE/><ORIGINATOR/></header><body><segment><metadata><OBJECT_NAME>IRIDIUM 69</OBJECT_NAME><OBJECT_ID>1998-026A</OBJECT_ID><CENTER_NAME>EARTH</CENTER_NAME><REF_FRAME>TEME</REF_FRAME><TIME_SYSTEM>UTC</TIME_SYSTEM><MEAN_ELEMENT_THEORY>SGP4</MEAN_ELEMENT_THEORY></metadata><data><meanElements><EPOCH>2024-11-22T13:49:37.217280</EPOCH><MEAN_MOTION>14.40540161</MEAN_MOTION><ECCENTRICITY>.0002845</ECCENTRICITY><INCLINATION>86.4013</INCLINATION><RA_OF_ASC_NODE>182.6346</RA_OF_ASC_NODE><ARG_OF_PERICENTER>30.2893</ARG_OF_PERICENTER><MEAN_ANOMALY>329.8470</MEAN_ANOMALY></meanElements><tleParameters><EPHEMERIS_TYPE>0</EPHEMERIS_TYPE><CLASSIFICATION_TYPE>U</CLASSIFICATION_TYPE><NORAD_CAT_ID>25319</NORAD_CAT_ID><ELEMENT_SET_NO>999</ELEMENT_SET_NO><REV_AT_EPOCH>39331</REV_AT_EPOCH><BSTAR>.30865E-3</BSTAR><MEAN_MOTION_DOT>.1002E-4</MEAN_MOTION_DOT><MEAN_MOTION_DDOT>0</MEAN_MOTION_DDOT></tleParameters></data></segment></body></omm>
<omm id="CCSDS_OMM_VERS" version="2.0">
<header><CREATION_DATE/><ORIGINATOR/></header><body><segment><metadata><OBJECT_NAME>IRIDIUM 71</OBJECT_NAME><OBJECT_ID>1998-026B</OBJECT_ID><CENTER_NAME>EARTH</CENTER_NAME><REF_FRAME>TEME</REF_FRAME><TIME_SYSTEM>UTC</TIME_SYSTEM><MEAN_ELEMENT_THEORY>SGP4</MEAN_ELEMENT_THEORY></metadata><data><meanElements><EPOCH>2024-11-22T13:03:28.766016</EPOCH><MEAN_MOTION>14.40779051</MEAN_MOTION><ECCENTRICITY>.0003958</ECCENTRICITY><INCLINATION>86.4007</INCLINATION><RA_OF_ASC_NODE>177.3835</RA_OF_ASC_NODE><ARG_OF_PERICENTER>66.9119</ARG_OF_PERICENTER><MEAN_ANOMALY>293.2497</MEAN_ANOMALY></meanElements><tleParameters><EPHEMERIS_TYPE>0</EPHEMERIS_TYPE><CLASSIFICATION_TYPE>U</CLASSIFICATION_TYPE><NORAD_CAT_ID>25320</NORAD_CAT_ID><ELEMENT_SET_NO>999</ELEMENT_SET_NO><REV_AT_EPOCH>39383</REV_AT_EPOCH><BSTAR>.25461E-3</BSTAR><MEAN_MOTION_DOT>.834E-5</MEAN_MOTION_DOT><MEAN_MOTION_DDOT>0</MEAN_MOTION_DDOT></tleParameters></data></segment></body></omm>
<omm id="CCSDS_OMM_VERS" version="2.0">
<header><CREATION_DATE/><ORIGINATOR/></header><body><segment><metadata><OBJECT_NAME>IRIDIUM 73</OBJECT_NAME><OBJECT_ID>1998-032C</OBJECT_ID><CENTER_NAME>EARTH</CENTER_NAME><REF_FRAME>TEME</REF_FRAME><TIME_SYSTEM>UTC</TIME_SYSTEM><MEAN_ELEMENT_THEORY>SGP4</MEAN_ELEMENT_THEORY></metadata><data><meanElements><EPOCH>2024-11-22T10:47:48.697152</EPOCH><MEAN_MOTION>14.51152140</MEAN_MOTION><ECCENTRICITY>.0001889</ECCENTRICITY><INCLINATION>86.4401</INCLINATION><RA_OF_ASC_NODE>134.6028</RA_OF_ASC_NODE><ARG_OF_PERICENTER>69.5248</ARG_OF_PERICENTER><MEAN_ANOMALY>290.6160</MEAN_ANOMALY></meanElements><tleParameters><EPHEMERIS_TYPE>0</EPHEMERIS_TYPE><CLASSIFICATION_TYPE>U</CLASSIFICATION_TYPE><NORAD_CAT_ID>25344</NORAD_CAT_ID><ELEMENT_SET_NO>999</ELEMENT_SET_NO><REV_AT_EPOCH>40057</REV_AT_EPOCH><BSTAR>.39616E-3</BSTAR><MEAN_MOTION_DOT>.1591E-4</MEAN_MOTION_DOT><MEAN_MOTION_DDOT>0</MEAN_MOTION_DDOT></tleParameters></data></segment></body></omm>
<omm id="CCSDS_OMM_VERS" version="2.0">
<header><CREATION_DATE/><ORIGINATOR/></header><body><segment><metadata><OBJECT_NAME>IRIDIUM 82</OBJECT_NAME><OBJECT_ID>1998-051A</OBJECT_ID><CENTER_NAME>EARTH</CENTER_NAME><REF_FRAME>TEME</REF_FRAME><TIME_SYSTEM>UTC</TIME_SYSTEM><MEAN_ELEMENT_THEORY>SGP4</MEAN_ELEMENT_THEORY></metadata><data><meanElements><EPOCH>2024-11-22T04:02:32.778816</EPOCH><MEAN_MOTION>15.18953969</MEAN_MOTION><ECCENTRICITY>.0110045</ECCENTRICITY><INCLINATION>86.3755</INCLINATION><RA_OF_ASC_NODE>210.3697</RA_OF_ASC_NODE><ARG_OF_PERICENTER>357.8827</ARG_OF_PERICENTER><MEAN_ANOMALY>2.1933</MEAN_ANOMALY></meanElements><tleParameters><EPHEMERIS_TYPE>0</EPHEMERIS_TYPE><CLASSIFICATION_TYPE>U</CLASSIFICATION_TYPE><NORAD_CAT_ID>25467</NORAD_CAT_ID><ELEMENT_SET_NO>999</ELEMENT_SET_NO><REV_AT_EPOCH>39239</REV_AT_EPOCH><BSTAR>.13255E-2</BSTAR><MEAN_MOTION_DOT>.32654E-3</MEAN_MOTION_DOT><MEAN_MOTION_DDOT>0</MEAN_MOTION_DDOT></tleParameters></data></segment></body></omm>
</ndm>
